*******************************************************************************
Ephemeris / WWW_USER Mon Mar 10 07:45:20 2025 Pasadena, USA      / Horizons    
*******************************************************************************
Target body name: (2013 AZ60)                     {source: JPL#49}
Center body name: Earth (399)                     {source: DE441}
Center-site name: Mauna Kea
*******************************************************************************
Start time      : A.D. 2018-Aug-09 05:04:00.0000 UT      
Stop  time      : A.D. 2018-Aug-09 15:50:00.0000 UT      
Step-size       : 1 minutes
*******************************************************************************
Target pole/equ : undefined
Target radii    : undefined                                                    
Center geodetic : 204.5278, 19.8260847, 4.21024   {E-lon(deg),Lat(deg),Alt(km)}
Center cylindric: 204.5278, 6006.35451, 2151.0229 {E-lon(deg),Dxy(km),Dz(km)}
Center pole/equ : ITRF93                          {East-longitude positive}
Center radii    : 6378.137, 6378.137, 6356.752 km {Equator_a, b, pole_c}       
Target primary  : Sun
Vis. interferer : MOON (R_eq= 1737.400) km        {source: DE441}
Rel. light bend : Sun                             {source: DE441}
Rel. lght bnd GM: 1.3271E+11 km^3/s^2                                          
Small-body perts: Yes                             {source: SB441-N16}
Atmos refraction: NO (AIRLESS)
RA format       : HMS
Time format     : CAL 
Calendar mode   : Mixed Julian/Gregorian
RTS-only print  : NO       
EOP file        : eop.250307.p250603                                           
EOP coverage    : DATA-BASED 1962-JAN-20 TO 2025-MAR-07. PREDICTS-> 2025-JUN-02
Units conversion: 1 au= 149597870.700 km, c= 299792.458 km/s, 1 day= 86400.0 s 
Table cut-offs 1: Elevation (-90.0deg=NO ),Airmass (>38.000=NO), Daylight (YES)
Table cut-offs 2: Solar elongation (  0.0,180.0=NO ),Local Hour Angle( 0.0=NO )
Table cut-offs 3: RA/DEC angular rate (     0.0=NO )                           
*******************************************************************************
Initial IAU76/J2000 heliocentric ecliptic osculating elements (au, days, deg.):
  EPOCH=  2457400.5 ! 2016-Jan-13.00 (TDB)         Residual RMS= .1326         
   EC= .9891456016948332   QR= 7.910280980491398   TP= 2456989.3208761909      
   OM= 349.2102750469422   W=  158.2320149266156   IN= 16.53862471305098       
  Equivalent ICRF heliocentric cartesian coordinates (au, au/d):
   X=-8.215502218447208E+00  Y= 1.083611838195559E+00  Z= 3.298265209415168E-01
  VX=-2.822922434188891E-03 VY=-6.008885131743716E-03 VZ=-5.184670886061429E-03
Asteroid physical parameters (km, seconds, rotational period in hours):        
   GM= n.a.                RAD= n.a.               ROTPER= 9.39                
   H= 10.3                 G= .150                 B-V= n.a.                   
                           ALBEDO= n.a.            STYP= n.a.                  
*******************************************************************************
 Date__(UT)__HR:MN     R.A._________(ICRF)_________DEC
******************************************************
$$SOE
 2018-Aug-09 07:07     13 23 27.436315 -20 46 39.92625
 2018-Aug-09 07:08     13 23 27.446701 -20 46 39.96255
 2018-Aug-09 07:09     13 23 27.457089 -20 46 39.99884
 2018-Aug-09 07:10     13 23 27.467477 -20 46 40.03514
 2018-Aug-09 07:11     13 23 27.477867 -20 46 40.07143
 2018-Aug-09 07:12     13 23 27.488258 -20 46 40.10772
 2018-Aug-09 07:13     13 23 27.498649 -20 46 40.14401
 2018-Aug-09 07:14     13 23 27.509042 -20 46 40.18030
 2018-Aug-09 07:15     13 23 27.519436 -20 46 40.21659
 2018-Aug-09 07:16     13 23 27.529831 -20 46 40.25288
 2018-Aug-09 07:17     13 23 27.540226 -20 46 40.28916
 2018-Aug-09 07:18     13 23 27.550623 -20 46 40.32545
 2018-Aug-09 07:19     13 23 27.561021 -20 46 40.36174
 2018-Aug-09 07:20     13 23 27.571421 -20 46 40.39802
 2018-Aug-09 07:21     13 23 27.581821 -20 46 40.43431
 2018-Aug-09 07:22     13 23 27.592222 -20 46 40.47059
 2018-Aug-09 07:23     13 23 27.602624 -20 46 40.50688
 2018-Aug-09 07:24     13 23 27.613027 -20 46 40.54316
 2018-Aug-09 07:25     13 23 27.623432 -20 46 40.57944
 2018-Aug-09 07:26     13 23 27.633837 -20 46 40.61572
 2018-Aug-09 07:27     13 23 27.644244 -20 46 40.65200
 2018-Aug-09 07:28     13 23 27.654651 -20 46 40.68828
 2018-Aug-09 07:29     13 23 27.665060 -20 46 40.72457
 2018-Aug-09 07:30     13 23 27.675470 -20 46 40.76085
 2018-Aug-09 07:31     13 23 27.685881 -20 46 40.79712
 2018-Aug-09 07:32     13 23 27.696292 -20 46 40.83340
 2018-Aug-09 07:33     13 23 27.706705 -20 46 40.86968
 2018-Aug-09 07:34     13 23 27.717120 -20 46 40.90596
 2018-Aug-09 07:35     13 23 27.727535 -20 46 40.94224
 2018-Aug-09 07:36     13 23 27.737951 -20 46 40.97851
 2018-Aug-09 07:37     13 23 27.748368 -20 46 41.01479
 2018-Aug-09 07:38     13 23 27.758787 -20 46 41.05107
 2018-Aug-09 07:39     13 23 27.769206 -20 46 41.08735
 2018-Aug-09 07:40     13 23 27.779627 -20 46 41.12362
 2018-Aug-09 07:41     13 23 27.790048 -20 46 41.15990
 2018-Aug-09 07:42     13 23 27.800471 -20 46 41.19617
 2018-Aug-09 07:43     13 23 27.810895 -20 46 41.23245
 2018-Aug-09 07:44     13 23 27.821320 -20 46 41.26872
 2018-Aug-09 07:45     13 23 27.831746 -20 46 41.30500
 2018-Aug-09 07:46     13 23 27.842173 -20 46 41.34127
 2018-Aug-09 07:47     13 23 27.852601 -20 46 41.37755
 2018-Aug-09 07:48     13 23 27.863030 -20 46 41.41382
 2018-Aug-09 07:49     13 23 27.873460 -20 46 41.45010
 2018-Aug-09 07:50     13 23 27.883892 -20 46 41.48637
 2018-Aug-09 07:51     13 23 27.894324 -20 46 41.52265
 2018-Aug-09 07:52     13 23 27.904758 -20 46 41.55892
 2018-Aug-09 07:53     13 23 27.915193 -20 46 41.59520
 2018-Aug-09 07:54     13 23 27.925629 -20 46 41.63147
 2018-Aug-09 07:55     13 23 27.936065 -20 46 41.66775
 2018-Aug-09 07:56     13 23 27.946504 -20 46 41.70402
 2018-Aug-09 07:57     13 23 27.956943 -20 46 41.74030
 2018-Aug-09 07:58     13 23 27.967383 -20 46 41.77657
 2018-Aug-09 07:59     13 23 27.977824 -20 46 41.81285
 2018-Aug-09 08:00     13 23 27.988267 -20 46 41.84912
 2018-Aug-09 08:01     13 23 27.998710 -20 46 41.88540
 2018-Aug-09 08:02     13 23 28.009155 -20 46 41.92167
 2018-Aug-09 08:03     13 23 28.019601 -20 46 41.95795
 2018-Aug-09 08:04     13 23 28.030047 -20 46 41.99422
 2018-Aug-09 08:05     13 23 28.040495 -20 46 42.03050
 2018-Aug-09 08:06     13 23 28.050944 -20 46 42.06678
 2018-Aug-09 08:07     13 23 28.061395 -20 46 42.10305
 2018-Aug-09 08:08     13 23 28.071846 -20 46 42.13933
 2018-Aug-09 08:09     13 23 28.082298 -20 46 42.17561
 2018-Aug-09 08:10     13 23 28.092752 -20 46 42.21189
 2018-Aug-09 08:11     13 23 28.103206 -20 46 42.24816
 2018-Aug-09 08:12     13 23 28.113662 -20 46 42.28444
 2018-Aug-09 08:13     13 23 28.124119 -20 46 42.32072
 2018-Aug-09 08:14     13 23 28.134577 -20 46 42.35700
 2018-Aug-09 08:15     13 23 28.145036 -20 46 42.39328
 2018-Aug-09 08:16  s  13 23 28.155496 -20 46 42.42956
 2018-Aug-09 08:17     13 23 28.165957 -20 46 42.46584
 2018-Aug-09 08:18     13 23 28.176420 -20 46 42.50213
 2018-Aug-09 08:19     13 23 28.186883 -20 46 42.53841
 2018-Aug-09 08:20     13 23 28.197348 -20 46 42.57469
 2018-Aug-09 08:21     13 23 28.207813 -20 46 42.61097
 2018-Aug-09 08:22     13 23 28.218280 -20 46 42.64726
 2018-Aug-09 08:23     13 23 28.228748 -20 46 42.68354
 2018-Aug-09 08:24     13 23 28.239217 -20 46 42.71983
 2018-Aug-09 08:25     13 23 28.249687 -20 46 42.75611
 2018-Aug-09 08:26     13 23 28.260158 -20 46 42.79240
 2018-Aug-09 08:27     13 23 28.270631 -20 46 42.82869
 2018-Aug-09 08:28     13 23 28.281104 -20 46 42.86498
 2018-Aug-09 08:29     13 23 28.291579 -20 46 42.90127
 2018-Aug-09 08:30     13 23 28.302055 -20 46 42.93756
 2018-Aug-09 08:31     13 23 28.312531 -20 46 42.97385
 2018-Aug-09 08:32     13 23 28.323009 -20 46 43.01014
 2018-Aug-09 08:33     13 23 28.333488 -20 46 43.04643
 2018-Aug-09 08:34     13 23 28.343969 -20 46 43.08272
 2018-Aug-09 08:35     13 23 28.354450 -20 46 43.11902
 2018-Aug-09 08:36     13 23 28.364932 -20 46 43.15531
 2018-Aug-09 08:37     13 23 28.375416 -20 46 43.19161
 2018-Aug-09 08:38     13 23 28.385900 -20 46 43.22790
 2018-Aug-09 08:39     13 23 28.396386 -20 46 43.26420
 2018-Aug-09 08:40     13 23 28.406873 -20 46 43.30050
 2018-Aug-09 08:41     13 23 28.417361 -20 46 43.33680
 2018-Aug-09 08:42     13 23 28.427850 -20 46 43.37310
 2018-Aug-09 08:43     13 23 28.438340 -20 46 43.40940
 2018-Aug-09 08:44     13 23 28.448832 -20 46 43.44571
 2018-Aug-09 08:45     13 23 28.459324 -20 46 43.48201
 2018-Aug-09 08:46     13 23 28.469818 -20 46 43.51832
 2018-Aug-09 08:47     13 23 28.480312 -20 46 43.55462
 2018-Aug-09 08:48     13 23 28.490808 -20 46 43.59093
 2018-Aug-09 08:49     13 23 28.501305 -20 46 43.62724
 2018-Aug-09 08:50     13 23 28.511803 -20 46 43.66355
 2018-Aug-09 08:51     13 23 28.522302 -20 46 43.69986
 2018-Aug-09 08:52     13 23 28.532802 -20 46 43.73618
 2018-Aug-09 08:53     13 23 28.543304 -20 46 43.77249
 2018-Aug-09 08:54     13 23 28.553806 -20 46 43.80880
 2018-Aug-09 08:55     13 23 28.564310 -20 46 43.84512
 2018-Aug-09 08:56     13 23 28.574814 -20 46 43.88144
 2018-Aug-09 08:57     13 23 28.585320 -20 46 43.91776
 2018-Aug-09 08:58     13 23 28.595827 -20 46 43.95408
 2018-Aug-09 08:59     13 23 28.606335 -20 46 43.99040
 2018-Aug-09 09:00     13 23 28.616844 -20 46 44.02673
 2018-Aug-09 09:01     13 23 28.627354 -20 46 44.06305
 2018-Aug-09 09:02     13 23 28.637865 -20 46 44.09938
 2018-Aug-09 09:03     13 23 28.648378 -20 46 44.13571
 2018-Aug-09 09:04     13 23 28.658891 -20 46 44.17203
 2018-Aug-09 09:05     13 23 28.669406 -20 46 44.20837
 2018-Aug-09 09:06     13 23 28.679922 -20 46 44.24470
 2018-Aug-09 09:07     13 23 28.690439 -20 46 44.28103
 2018-Aug-09 09:08     13 23 28.700957 -20 46 44.31737
 2018-Aug-09 09:09     13 23 28.711476 -20 46 44.35371
